BEESAT-4                
1 41619U 16040W   22100.69123953  .00018983  00000+0  67374-3 0  9993
2 41619  97.2257 153.1992 0009352   7.9815 352.1572 15.29053202310361
CAS-2T & KS-1Q          
1 41847U 16066G   22100.87523197  .00001065  00000+0  16842-3 0  9995
2 41847  98.5572 165.5988 0365090  52.1137 311.2481 14.38478398284634
NAYIF-1 (EO-88)         
1 42017U 17008BX  22100.76631440  .00018303  00000+0  58948-3 0  9997
2 42017  97.2753 167.9561 0006762 126.3172 233.8695 15.32229603286709
ZHUHAI-1 02 (CAS-4B)    
1 42759U 17034B   22101.18863550  .00005827  00000+0  35221-3 0  9991
2 42759  43.0188 343.3154 0009678 230.1694 274.3623 15.11324926266174
ZHUHAI-1 01 (CAS-4A)    
1 42761U 17034D   22101.16109649  .00005162  00000+0  31283-3 0  9990
2 42761  43.0190 342.2981 0009753 233.5903 263.9134 15.11408993266178
MAX VALIER SAT          
1 42778U 17036P   22100.86554527  .00009914  00000+0  39082-3 0  9999
2 42778  97.2151 144.3164 0010970 196.2658 163.8230 15.25716342266599
RADFXSAT (FOX-1B)       
1 43017U 17073E   22100.68040629  .00006747  00000+0  50916-3 0  9990
2 43017  97.6826 357.6373 0252044  49.9348 312.3674 14.80774046237080
FOX-1D (AO-92)          
1 43137U 18004AC  22101.19738459  .00011935  00000+0  44035-3 0  9990
2 43137  97.3725 177.0195 0007058 232.6271 127.4326 15.27905301236061
DIWATA-2B               
1 43678U 18084H   22101.18771122  .00002297  00000+0  23202-3 0  9995
2 43678  97.9588 233.7167 0011156 142.2356 217.9661 14.92028037187826
ES'HAIL 2               
1 43700U 18090A   22100.67438135  .00000143  00000+0  00000+0 0  9990
2 43700   0.0013 190.0732 0002194 214.0994  63.2770  1.00270604 12353
FOX-1CLIFF (AO-95)      
1 43770U 18099N   22100.71184497  .00003126  00000+0  28292-3 0  9991
2 43770  97.6258 168.8212 0015235 140.0161 220.2185 14.96031210182881
ITASAT 1                
1 43786U 18099AE  22101.18106457  .00002580  00000+0  23317-3 0  9996
2 43786  97.6280 170.1576 0015979 131.7859 228.4731 14.96235687182991
JY1SAT (JO-97)          
1 43803U 18099AX  22100.75112615  .00003889  00000+0  34517-3 0  9998
2 43803  97.6257 169.4800 0016227 130.9566 229.3063 14.96644858182946
UWE-4                   
1 43880U 18111E   22100.73223964  .00003668  00000+0  31769-3 0  9997
2 43880  97.6714   8.2319 0011928 182.4117 177.7050 14.97692917179567
NEXUS (FO-99)           
1 43937U 19003F   22100.86303805  .00015070  00000+0  53493-3 0  9996
2 43937  97.1396 136.8983 0022190  40.3366 319.9515 15.28898380179649
PSAT2 (NO-104)          
1 44354U 19036R   22100.21075316  .00047639 -59309-5  48456-3 0  9990
2 44354  28.5285 288.3092 0259730 286.7262  70.4986 15.31258841154184
BRICSAT2 (NO-103)       
1 44355U 19036S   22100.81594365  .00917816  35956-3  16063-2 0  9997
2 44355  28.5145 155.0415 0071472 141.9217 218.6475 15.96099418155540
JAISAT-1                
1 44419U 19038F   22100.88124697  .00010715  00000+0  55715-3 0  9992
2 44419  97.6301  70.5467 0020098  12.2202 347.9514 15.16072940152812
DUCHIFAT-3              
1 44854U 19089C   22101.11777900  .00004080  00000+0  32344-3 0  9990
2 44854  36.9640 139.3765 0007410  27.4185   6.1950 15.00522002127815
CAS-6 (TO-108)          
1 44881U 19093C   22101.04659680  .00001243  00000+0  16444-3 0  9992
2 44881  97.8941 181.2221 0015932  50.7167 309.5476 14.81633881124798
RS-44 & BREEZE-KM R/B   
1 44909U 19096E   22100.95491943  .00000048  00000+0  14090-3 0  9998
2 44909  82.5169 275.1217 0218322 117.4640 244.8844 12.79713099106925
ORBITAL FACTORY 2 (OF-2)
1 45113U 19071C   22101.17138294  .00029776  00000+0  69639-3 0  9999
2 45113  51.6407  29.5528 0008263 290.7032  69.3068 15.41863455122988
HUSKYSAT-1 (HO-107)     
1 45119U 19071J   22100.43234030  .00024645  00000+0  58959-3 0  9991
2 45119  51.6402  32.8489 0008114 283.6382  76.3700 15.41288223122868
BY70-2                  
1 45857U 20042B   22101.19201269  .00009062  00000+0  12380-2 0  9995
2 45857  97.9559 178.7237 0009021 338.8617  21.2261 14.78782070 95516
SALSAT                  
1 46495U 20068K   22100.78245806  .00003658  00000+0  26749-3 0  9991
2 46495  97.7238  42.1032 0017453 143.0955 217.1475 15.04137117 84015
BY70-3                  
1 46839U 20079N   22101.14512760  .00026171  00000+0  68122-3 0  9998
2 46839  97.2035 174.2545 0006267 202.2421 247.0542 15.38852529 79884
RADFXSAT-2 (AO-109)     
1 47311U 21002C   22100.72661222  .00012404  00000+0  51714-3 0  9995
2 47311  60.6849 256.9624 0012770 234.9033 125.0858 15.24019490 68138
UVSQ-SAT                
1 47438U 21006AB  22100.72375663  .00008734  00000+0  47325-3 0  9994
2 47438  97.4446 161.1439 0013229 145.6816 214.5273 15.14759880 67022
DIY-1 (ARDUIQUBE)       
1 47963U 21022AH  22100.66102159  .00023348  00000+0  13881-2 0  9993
2 47963  97.5379   2.9026 0018413  14.3358 345.8391 15.11125748 56707
XW-3 (CAS-9)            
1 50466U 21131B   22101.18806340  .00000228  00000+0  89214-4 0  9994
2 50466  98.5827 178.4685 0004142   6.4771 353.6469 14.38463467 15241
